NORAD_CAT_ID,OBJECT_NAME,OBJECT_TYPE,EPOCH,MEAN_MOTION,ECCENTRICITY,INCLINATION,RA_OF_ASC_NODE,ARG_OF_PERICENTER,MEAN_ANOMALY,BSTAR,MEAN_MOTION_DOT,MEAN_MOTION_DDOT,TLE_LINE0,TLE_LINE1,TLE_LINE2,SEMIMAJOR_AXIS,PERIOD,APOGEE,PERIGEE,DECAYED
53164.0,STARLINK-4116,PAYLOAD,2023-05-03 12:57:27,15.08840002,9.78e-05,53.2147,158.0231,78.1904,281.9198,5.3464e-05,5.63e-06,0.0,0 STARLINK-4116,1 53164U 22083AJ  23123.53989976  .00000563  00000-0  53464-4 0  9991,2 53164  53.2147 158.0231 0000978  78.1904 281.9198 15.08840002 44189,6917.88,95.438,540.422,539.069,0.0
53164.0,STARLINK-4116,PAYLOAD,2023-05-04 11:12:51,15.08842811,9.29e-05,53.2152,153.8597,81.7196,278.3902,2.9828e-05,1.87e-06,0.0,0 STARLINK-4116,1 53164U 22083AJ  23124.46726135  .00000187  00000-0  29828-4 0  9999,2 53164  53.2152 153.8597 0000929  81.7196 278.3902 15.08842811 44950,6917.872,95.437,540.379,539.094,0.0
53164.0,STARLINK-4116,PAYLOAD,2023-05-04 19:09:46,15.08850645,8.12e-05,53.215,152.3726,95.1257,264.9828,-5.5413e-05,-1.17e-05,0.0,0 STARLINK-4116,1 53164U 22083AJ  23124.79845652 -.00001170  00000-0 -55413-4 0  9995,2 53164  53.2150 152.3726 0000812  95.1257 264.9828 15.08850645 44372,6917.848,95.437,540.275,539.151,0.0
53164.0,STARLINK-4116,PAYLOAD,2023-05-05 19:00:33,15.08841739,8.84e-05,53.2147,147.9121,86.3815,273.7278,8.5096e-05,1.067e-05,0.0,0 STARLINK-4116,1 53164U 22083AJ  23125.79205979  .00001067  00000-0  85096-4 0  9991,2 53164  53.2147 147.9121 0000884  86.3815 273.7278 15.08841739 45156,6917.875,95.437,540.352,539.129,0.0
53164.0,STARLINK-4116,PAYLOAD,2023-05-06 10:54:25,15.08843645,9.02e-05,53.2149,144.9383,90.256,269.8535,9.428e-05,1.213e-05,0.0,0 STARLINK-4116,1 53164U 22083AJ  23126.45445976  .00001213  00000-0  94280-4 0  9996,2 53164  53.2149 144.9383 0000902  90.2560 269.8535 15.08843645 44628,6917.869,95.437,540.358,539.11,0.0
53164.0,STARLINK-4116,PAYLOAD,2023-05-07 01:12:53,15.08838876,9.5e-05,53.2144,142.261,92.4194,267.6907,-5.5019e-07,-2.96e-06,0.0,0 STARLINK-4116,1 53164U 22083AJ  23127.05062480 -.00000296  00000-0 -55019-6 0  9999,2 53164  53.2144 142.2610 0000950  92.4194 267.6907 15.08838876 45346,6917.884,95.438,540.406,539.092,0.0
53164.0,STARLINK-4116,PAYLOAD,2023-05-07 07:34:26,15.08838356,9.1e-05,53.2148,141.071,99.5723,260.5372,-1.1601e-05,-4.72e-06,0.0,0 STARLINK-4116,1 53164U 22083AJ  23127.31558513 -.00000472  00000-0 -11601-4 0  9998,2 53164  53.2148 141.0710 0000910  99.5723 260.5372 15.08838356 44755,6917.885,95.438,540.38,539.121,0.0
53164.0,STARLINK-4116,PAYLOAD,2023-05-08 04:14:27,15.08838425,8.84e-05,53.215,137.2047,102.0933,258.0158,5.3596e-05,5.65e-06,0.0,0 STARLINK-4116,1 53164U 22083AJ  23128.17670404  .00000565  00000-0  53596-4 0  9997,2 53164  53.2150 137.2047 0000884 102.0933 258.0158 15.08838425 45517,6917.885,95.438,540.362,539.139,0.0
53164.0,STARLINK-4116,PAYLOAD,2023-05-08 16:57:32,15.08838779,9.24e-05,53.2152,134.8276,78.1281,281.9815,5.0719e-05,5.2e-06,0.0,0 STARLINK-4116,1 53164U 22083AJ  23128.70662475  .00000520  00000-0  50719-4 0  9990,2 53164  53.2152 134.8276 0000924  78.1281 281.9815 15.08838779 44965,6917.884,95.438,540.388,539.11,0.0
53164.0,STARLINK-4116,PAYLOAD,2023-05-09 08:51:23,15.08840942,9.07e-05,53.2156,131.8543,77.3283,282.7811,0.00011401,1.527e-05,0.0,0 STARLINK-4116,1 53164U 22083AJ  23129.36902284  .00001527  00000-0  11401-3 0  9990,2 53164  53.2156 131.8543 0000907  77.3283 282.7811 15.08840942 45069,6917.878,95.437,540.37,539.115,0.0
53164.0,STARLINK-4116,PAYLOAD,2023-05-10 05:31:24,15.08837706,9.3e-05,53.2153,127.9886,72.3556,287.7538,7.5464e-06,-1.68e-06,0.0,0 STARLINK-4116,1 53164U 22083AJ  23130.23015017 -.00000168  00000-0  75464-5 0  9999,2 53164  53.2153 127.9886 0000930  72.3556 287.7538 15.08837706 45195,6917.887,95.438,540.396,539.109,0.0
53164.0,STARLINK-4116,PAYLOAD,2023-05-10 16:39:06,15.08839969,9.17e-05,53.2155,125.9071,78.2227,281.8868,3.1182e-05,2.09e-06,0.0,0 STARLINK-4116,1 53164U 22083AJ  23130.69382812  .00000209  00000-0  31182-4 0  9992,2 53164  53.2155 125.9071 0000917  78.2227 281.8868 15.08839969 45268,6917.88,95.438,540.38,539.111,0.0
53164.0,STARLINK-4116,PAYLOAD,2023-05-11 06:57:34,15.08842087,9.94e-05,53.2158,123.2313,85.9452,274.1654,4.4493e-05,4.2e-06,0.0,0 STARLINK-4116,1 53164U 22083AJ  23131.28998671  .00000420  00000-0  44493-4 0  9998,2 53164  53.2158 123.2313 0000994  85.9452 274.1654 15.08842087 45983,6917.874,95.437,540.427,539.051,0.0
53164.0,STARLINK-4116,PAYLOAD,2023-05-11 16:29:53,15.08839441,9.08e-05,53.2156,121.4479,88.8953,271.2143,5.7892e-05,6.34e-06,0.0,0 STARLINK-4116,1 53164U 22083AJ  23131.68742776  .00000634  00000-0  57892-4 0  9999,2 53164  53.2156 121.4479 0000908  88.8953 271.2143 15.08839441 45416,6917.882,95.438,540.375,539.119,0.0
53164.0,STARLINK-4116,PAYLOAD,2023-05-12 05:12:59,15.08837676,9.15e-05,53.2155,119.0688,88.6276,271.4821,5.8199e-05,6.39e-06,0.0,0 STARLINK-4116,1 53164U 22083AJ  23132.21734996  .00000639  00000-0  58199-4 0  9990,2 53164  53.2155 119.0688 0000915  88.6276 271.4821 15.08837676 45495,6917.887,95.438,540.385,539.12,0.0
53164.0,STARLINK-4116,PAYLOAD,2023-05-12 16:20:41,15.08836984,9.35e-05,53.2155,116.9856,87.9757,272.1342,4.3488e-05,4.04e-06,0.0,0 STARLINK-4116,1 53164U 22083AJ  23132.68103175  .00000404  00000-0  43488-4 0  9995,2 53164  53.2155 116.9856 0000935  87.9757 272.1342 15.08836984 46191,6917.89,95.438,540.401,539.108,0.0
53164.0,STARLINK-4116,PAYLOAD,2023-05-13 05:03:46,15.08840628,9.33e-05,53.2155,114.6059,89.7747,270.3352,4.9788e-05,5.05e-06,0.0,0 STARLINK-4116,1 53164U 22083AJ  23133.21094972  .00000505  00000-0  49788-4 0  9990,2 53164  53.2155 114.6059 0000933  89.7747 270.3352 15.08840628 45648,6917.878,95.438,540.389,539.098,0.0
53164.0,STARLINK-4116,PAYLOAD,2023-05-13 16:11:27,15.08840798,9.36e-05,53.2157,112.5245,88.1998,271.9101,5.61e-05,6.05e-06,0.0,0 STARLINK-4116,1 53164U 22083AJ  23133.67462894  .00000605  00000-0  56100-4 0  9999,2 53164  53.2157 112.5245 0000936  88.1998 271.9101 15.08840798 45713,6917.878,95.438,540.39,539.095,0.0
53164.0,STARLINK-4116,PAYLOAD,2023-05-14 04:54:33,15.08838995,9.68e-05,53.2158,110.1456,89.0046,271.1057,6.1543e-05,6.92e-06,0.0,0 STARLINK-4116,1 53164U 22083AJ  23134.20455069  .00000692  00000-0  61543-4 0  9998,2 53164  53.2158 110.1456 0000968  89.0046 271.1057 15.08838995 46428,6917.883,95.438,540.418,539.079,0.0
53164.0,STARLINK-4116,PAYLOAD,2023-05-15 03:09:56,15.08842141,0.000105,53.2162,105.9814,92.3903,267.721,5.3828e-05,5.69e-06,0.0,0 STARLINK-4116,1 53164U 22083AJ  23135.13190837  .00000569  00000-0  53828-4 0  9990,2 53164  53.2162 105.9814 0001050  92.3903 267.7210 15.08842141 45930,6917.874,95.437,540.465,539.012,0.0
53164.0,STARLINK-4116,PAYLOAD,2023-05-16 03:00:44,15.08835919,0.0001127,53.2167,101.5214,92.4286,267.6836,8.7997e-06,-1.48e-06,0.0,0 STARLINK-4116,1 53164U 22083AJ  23136.12551478 -.00000148  00000-0  87997-5 0  9991,2 53164  53.2167 101.5214 0001127  92.4286 267.6836 15.08835919 46716,6917.893,95.438,540.538,538.978,0.0
53164.0,STARLINK-4116,PAYLOAD,2023-05-16 22:05:22,15.08832695,0.000122,53.217,97.9538,104.4862,255.6265,1.2696e-05,-8.6e-07,0.0,0 STARLINK-4116,1 53164U 22083AJ  23136.92039763 -.00000086  00000-0  12696-4 0  9991,2 53164  53.2170  97.9538 0001220 104.4862 255.6265 15.08832695 46200,6917.903,95.438,540.612,538.924,0.0
53164.0,STARLINK-4116,PAYLOAD,2023-05-17 06:02:18,15.08834773,0.000118,53.2172,96.4687,102.906,257.2064,2.257e-05,7.1e-07,0.0,0 STARLINK-4116,1 53164U 22083AJ  23137.25159728  .00000071  00000-0  22570-4 0  9997,2 53164  53.2172  96.4687 0001180 102.9060 257.2064 15.08834773 46887,6917.896,95.438,540.578,538.945,0.0
53164.0,STARLINK-4116,PAYLOAD,2023-05-18 05:53:05,15.08835435,0.0001159,53.2172,92.0082,100.1833,259.929,5.68e-05,6.16e-06,0.0,0 STARLINK-4116,1 53164U 22083AJ  23138.24519929  .00000616  00000-0  56800-4 0  9998,2 53164  53.2172  92.0082 0001159 100.1833 259.9290 15.08835435 46406,6917.894,95.438,540.561,538.958,0.0
53164.0,STARLINK-4116,PAYLOAD,2023-05-19 02:33:06,15.08838267,0.0001078,53.2167,88.1414,96.7898,263.3217,5.6942e-05,6.19e-06,0.0,0 STARLINK-4116,1 53164U 22083AJ  23139.10631959  .00000619  00000-0  56942-4 0  9992,2 53164  53.2167  88.1414 0001078  96.7898 263.3217 15.08838267 47164,6917.886,95.438,540.496,539.005,0.0
53164.0,STARLINK-4116,PAYLOAD,2023-05-19 05:43:52,15.08841174,0.0001088,53.2167,87.5467,97.5717,262.5399,7.9029e-05,9.7e-06,0.0,0 STARLINK-4116,1 53164U 22083AJ  23139.23879730  .00000970  00000-0  79029-4 0  9998,2 53164  53.2167  87.5467 0001088  97.5717 262.5399 15.08841174 46550,6917.877,95.437,540.494,538.989,0.0
53164.0,STARLINK-4116,PAYLOAD,2023-05-20 05:34:38,15.08849386,0.0001184,53.2172,83.0845,92.5051,267.6077,0.00011254,1.504e-05,0.0,0 STARLINK-4116,1 53164U 22083AJ  23140.23239161  .00001504  00000-0  11254-3 0  9997,2 53164  53.2172  83.0845 0001184  92.5051 267.6077 15.08849386 47339,6917.852,95.437,540.536,538.898,0.0
53164.0,STARLINK-4116,PAYLOAD,2023-05-21 02:14:39,15.08850947,0.0001198,53.2175,79.2179,96.0947,264.0182,6.875e-05,8.07e-06,0.0,0 STARLINK-4116,1 53164U 22083AJ  23141.09350734  .00000807  00000-0  68750-4 0  9991,2 53164  53.2175  79.2179 0001198  96.0947 264.0182 15.08850947 46834,6917.847,95.437,540.541,538.883,0.0
53164.0,STARLINK-4116,PAYLOAD,2023-05-21 19:43:54,15.08839245,0.0001325,53.2175,75.9481,88.8139,271.3005,-8.0796e-05,-1.574e-05,0.0,0 STARLINK-4116,1 53164U 22083AJ  23141.82216077 -.00001574  00000-0 -80796-4 0  9991,2 53164  53.2175  75.9481 0001325  88.8139 271.3005 15.08839245 46942,6917.883,95.438,540.664,538.831,0.0
53164.0,STARLINK-4116,PAYLOAD,2023-05-22 02:05:27,15.08836698,0.0001516,53.218,74.7573,101.1578,258.9585,-9.5271e-05,-1.804e-05,0.0,0 STARLINK-4116,1 53164U 22083AJ  23142.08712246 -.00001804  00000-0 -95271-4 0  9999,2 53164  53.2180  74.7573 0001516 101.1578 258.9585 15.08836698 47613,6917.89,95.438,540.804,538.707,0.0
